KUIPER-00160            
1 67765U 26030B   26062.58090497  .00015050  00000+0  44247-3 0  9994
2 67765  51.8807 248.6248 0004684  39.4880 320.6446 15.35296692  4153
KUIPER-00177            
1 67766U 26030C   26062.56982778  .00042133  00000+0  11793-2 0  9996
2 67766  51.8824 248.5575 0000849  14.3984 345.7026 15.36228074  4153
KUIPER-00178            
1 67767U 26030D   26062.58256065  .00037317  00000+0  10796-2 0  9992
2 67767  51.8831 248.6406 0005957  28.8527 331.2788 15.35233856  4152
KUIPER-00180            
1 67768U 26030E   26062.60934619  .00001589  00000+0  62218-4 0  9994
2 67768  51.8796 248.8057 0015003  50.9423 309.2894 15.32153120  4156
KUIPER-00197            
1 67769U 26030F   26062.57182396  .00034251  00000+0  96561-3 0  9997
2 67769  51.8831 248.5703 0001120  60.0655 300.0443 15.36099930  4157
KUIPER-00198            
1 67770U 26030G   26062.57626158  .00036518  00000+0  10402-2 0  9995
2 67770  51.8809 248.5954 0002899  33.5772 326.5397 15.35743160  4152
KUIPER-00199            
1 67771U 26030H   26062.59604470  .00036696  00000+0  11005-2 0  9998
2 67771  51.8795 248.7206 0010218  43.9006 316.2790 15.34079384  4150
KUIPER-00200            
1 67772U 26030J   26062.62930812  .00038852  00000+0  10707-2 0  9999
2 67772  51.8808 248.2045 0001495 206.8641 153.2269 15.36748329  4169
KUIPER-00203            
1 67773U 26030K   26062.58336806 -.01647410  00000+0 -69298-1 0  9995
2 67773  51.8813 248.9124 0011734  48.3135 161.7082 15.26054568  2715
KUIPER-00205            
1 67774U 26030L   26062.57255372  .00039662  00000+0  11161-2 0  9991
2 67774  51.8810 248.5711 0002389   4.1086 355.9920 15.36087003  4151
KUIPER-00208            
1 67775U 26030M   26062.60713080  .00010323  00000+0  33159-3 0  9996
2 67775  51.8820 248.7995 0014435  45.2280 314.9876 15.32779406  4152
KUIPER-00209            
1 67776U 26030N   26062.61059457 -.00007358  00000+0 -22702-3 0  9997
2 67776  51.8812 248.8193 0013376  48.9025 311.3112 15.31334966  4156
