CCSDS_OMM_VERS = 2.0
CREATION_DATE  = 
ORIGINATOR     = 

OBJECT_NAME    = KUIPER-00160
OBJECT_ID      = 2026-030B
CENTER_NAME    = EARTH
REF_FRAME      = TEME
TIME_SYSTEM    = UTC
MEAN_ELEMENT_THEORY = SGP/SGP4

EPOCH          = 2026-03-03T13:56:30.189408
MEAN_MOTION    = 15.35296692
ECCENTRICITY   = .00046844
INCLINATION    = 51.8807
RA_OF_ASC_NODE = 248.6248
ARG_OF_PERICENTER = 39.4880
MEAN_ANOMALY   = 320.6446

EPHEMERIS_TYPE = 0
CLASSIFICATION_TYPE = U
NORAD_CAT_ID   = 67765
ELEMENT_SET_NO = 999
REV_AT_EPOCH   = 415
BSTAR          = .44247049E-3
MEAN_MOTION_DOT = .1505E-3
MEAN_MOTION_DDOT = 0

CCSDS_OMM_VERS = 2.0
CREATION_DATE  = 
ORIGINATOR     = 

OBJECT_NAME    = KUIPER-00177
OBJECT_ID      = 2026-030C
CENTER_NAME    = EARTH
REF_FRAME      = TEME
TIME_SYSTEM    = UTC
MEAN_ELEMENT_THEORY = SGP/SGP4

EPOCH          = 2026-03-03T13:40:33.120192
MEAN_MOTION    = 15.36228074
ECCENTRICITY   = .00008492
INCLINATION    = 51.8824
RA_OF_ASC_NODE = 248.5575
ARG_OF_PERICENTER = 14.3984
MEAN_ANOMALY   = 345.7026

EPHEMERIS_TYPE = 0
CLASSIFICATION_TYPE = U
NORAD_CAT_ID   = 67766
ELEMENT_SET_NO = 999
REV_AT_EPOCH   = 415
BSTAR          = .11792514E-2
MEAN_MOTION_DOT = .42133E-3
MEAN_MOTION_DDOT = 0

CCSDS_OMM_VERS = 2.0
CREATION_DATE  = 
ORIGINATOR     = 

OBJECT_NAME    = KUIPER-00178
OBJECT_ID      = 2026-030D
CENTER_NAME    = EARTH
REF_FRAME      = TEME
TIME_SYSTEM    = UTC
MEAN_ELEMENT_THEORY = SGP/SGP4

EPOCH          = 2026-03-03T13:58:53.240160
MEAN_MOTION    = 15.35233856
ECCENTRICITY   = .0005957
INCLINATION    = 51.8831
RA_OF_ASC_NODE = 248.6406
ARG_OF_PERICENTER = 28.8527
MEAN_ANOMALY   = 331.2788

EPHEMERIS_TYPE = 0
CLASSIFICATION_TYPE = U
NORAD_CAT_ID   = 67767
ELEMENT_SET_NO = 999
REV_AT_EPOCH   = 415
BSTAR          = .10796456E-2
MEAN_MOTION_DOT = .37317E-3
MEAN_MOTION_DDOT = 0

CCSDS_OMM_VERS = 2.0
CREATION_DATE  = 
ORIGINATOR     = 

OBJECT_NAME    = KUIPER-00180
OBJECT_ID      = 2026-030E
CENTER_NAME    = EARTH
REF_FRAME      = TEME
TIME_SYSTEM    = UTC
MEAN_ELEMENT_THEORY = SGP/SGP4

EPOCH          = 2026-03-03T14:37:27.510816
MEAN_MOTION    = 15.32153120
ECCENTRICITY   = .00150039
INCLINATION    = 51.8796
RA_OF_ASC_NODE = 248.8057
ARG_OF_PERICENTER = 50.9423
MEAN_ANOMALY   = 309.2894

EPHEMERIS_TYPE = 0
CLASSIFICATION_TYPE = U
NORAD_CAT_ID   = 67768
ELEMENT_SET_NO = 999
REV_AT_EPOCH   = 415
BSTAR          = .62217968E-4
MEAN_MOTION_DOT = .1589E-4
MEAN_MOTION_DDOT = 0

CCSDS_OMM_VERS = 2.0
CREATION_DATE  = 
ORIGINATOR     = 

OBJECT_NAME    = KUIPER-00197
OBJECT_ID      = 2026-030F
CENTER_NAME    = EARTH
REF_FRAME      = TEME
TIME_SYSTEM    = UTC
MEAN_ELEMENT_THEORY = SGP/SGP4

EPOCH          = 2026-03-03T13:43:25.590144
MEAN_MOTION    = 15.36099930
ECCENTRICITY   = .00011202
INCLINATION    = 51.8831
RA_OF_ASC_NODE = 248.5703
ARG_OF_PERICENTER = 60.0655
MEAN_ANOMALY   = 300.0443

EPHEMERIS_TYPE = 0
CLASSIFICATION_TYPE = U
NORAD_CAT_ID   = 67769
ELEMENT_SET_NO = 999
REV_AT_EPOCH   = 415
BSTAR          = .96561427E-3
MEAN_MOTION_DOT = .34251E-3
MEAN_MOTION_DDOT = 0

CCSDS_OMM_VERS = 2.0
CREATION_DATE  = 
ORIGINATOR     = 

OBJECT_NAME    = KUIPER-00198
OBJECT_ID      = 2026-030G
CENTER_NAME    = EARTH
REF_FRAME      = TEME
TIME_SYSTEM    = UTC
MEAN_ELEMENT_THEORY = SGP/SGP4

EPOCH          = 2026-03-03T13:49:49.000512
MEAN_MOTION    = 15.35743160
ECCENTRICITY   = .0002899
INCLINATION    = 51.8809
RA_OF_ASC_NODE = 248.5954
ARG_OF_PERICENTER = 33.5772
MEAN_ANOMALY   = 326.5397

EPHEMERIS_TYPE = 0
CLASSIFICATION_TYPE = U
NORAD_CAT_ID   = 67770
ELEMENT_SET_NO = 999
REV_AT_EPOCH   = 415
BSTAR          = .10402286E-2
MEAN_MOTION_DOT = .36518E-3
MEAN_MOTION_DDOT = 0

CCSDS_OMM_VERS = 2.0
CREATION_DATE  = 
ORIGINATOR     = 

OBJECT_NAME    = KUIPER-00199
OBJECT_ID      = 2026-030H
CENTER_NAME    = EARTH
REF_FRAME      = TEME
TIME_SYSTEM    = UTC
MEAN_ELEMENT_THEORY = SGP/SGP4

EPOCH          = 2026-03-03T14:18:18.262080
MEAN_MOTION    = 15.34079384
ECCENTRICITY   = .00102185
INCLINATION    = 51.8795
RA_OF_ASC_NODE = 248.7206
ARG_OF_PERICENTER = 43.9006
MEAN_ANOMALY   = 316.2790

EPHEMERIS_TYPE = 0
CLASSIFICATION_TYPE = U
NORAD_CAT_ID   = 67771
ELEMENT_SET_NO = 999
REV_AT_EPOCH   = 415
BSTAR          = .11004547E-2
MEAN_MOTION_DOT = .36696E-3
MEAN_MOTION_DDOT = 0

CCSDS_OMM_VERS = 2.0
CREATION_DATE  = 
ORIGINATOR     = 

OBJECT_NAME    = KUIPER-00200
OBJECT_ID      = 2026-030J
CENTER_NAME    = EARTH
REF_FRAME      = TEME
TIME_SYSTEM    = UTC
MEAN_ELEMENT_THEORY = SGP/SGP4

EPOCH          = 2026-03-03T15:06:12.221568
MEAN_MOTION    = 15.36748329
ECCENTRICITY   = .00014952
INCLINATION    = 51.8808
RA_OF_ASC_NODE = 248.2045
ARG_OF_PERICENTER = 206.8641
MEAN_ANOMALY   = 153.2269

EPHEMERIS_TYPE = 0
CLASSIFICATION_TYPE = U
NORAD_CAT_ID   = 67772
ELEMENT_SET_NO = 999
REV_AT_EPOCH   = 416
BSTAR          = .10706895E-2
MEAN_MOTION_DOT = .38852E-3
MEAN_MOTION_DDOT = 0

CCSDS_OMM_VERS = 2.0
CREATION_DATE  = 
ORIGINATOR     = 

OBJECT_NAME    = KUIPER-00203
OBJECT_ID      = 2026-030K
CENTER_NAME    = EARTH
REF_FRAME      = TEME
TIME_SYSTEM    = UTC
MEAN_ELEMENT_THEORY = SGP/SGP4

EPOCH          = 2026-03-03T14:00:03.000384
MEAN_MOTION    = 15.26054568
ECCENTRICITY   = .00117348
INCLINATION    = 51.8813
RA_OF_ASC_NODE = 248.9124
ARG_OF_PERICENTER = 48.3135
MEAN_ANOMALY   = 161.7082

EPHEMERIS_TYPE = 0
CLASSIFICATION_TYPE = U
NORAD_CAT_ID   = 67773
ELEMENT_SET_NO = 999
REV_AT_EPOCH   = 271
BSTAR          = -.69298371E-1
MEAN_MOTION_DOT = -.164741E-1
MEAN_MOTION_DDOT = 0

CCSDS_OMM_VERS = 2.0
CREATION_DATE  = 
ORIGINATOR     = 

OBJECT_NAME    = KUIPER-00205
OBJECT_ID      = 2026-030L
CENTER_NAME    = EARTH
REF_FRAME      = TEME
TIME_SYSTEM    = UTC
MEAN_ELEMENT_THEORY = SGP/SGP4

EPOCH          = 2026-03-03T13:44:28.641408
MEAN_MOTION    = 15.36087003
ECCENTRICITY   = .00023894
INCLINATION    = 51.8810
RA_OF_ASC_NODE = 248.5711
ARG_OF_PERICENTER = 4.1086
MEAN_ANOMALY   = 355.9920

EPHEMERIS_TYPE = 0
CLASSIFICATION_TYPE = U
NORAD_CAT_ID   = 67774
ELEMENT_SET_NO = 999
REV_AT_EPOCH   = 415
BSTAR          = .11160811E-2
MEAN_MOTION_DOT = .39662E-3
MEAN_MOTION_DDOT = 0

CCSDS_OMM_VERS = 2.0
CREATION_DATE  = 
ORIGINATOR     = 

OBJECT_NAME    = KUIPER-00208
OBJECT_ID      = 2026-030M
CENTER_NAME    = EARTH
REF_FRAME      = TEME
TIME_SYSTEM    = UTC
MEAN_ELEMENT_THEORY = SGP/SGP4

EPOCH          = 2026-03-03T14:34:16.101120
MEAN_MOTION    = 15.32779406
ECCENTRICITY   = .00144359
INCLINATION    = 51.8820
RA_OF_ASC_NODE = 248.7995
ARG_OF_PERICENTER = 45.2280
MEAN_ANOMALY   = 314.9876

EPHEMERIS_TYPE = 0
CLASSIFICATION_TYPE = U
NORAD_CAT_ID   = 67775
ELEMENT_SET_NO = 999
REV_AT_EPOCH   = 415
BSTAR          = .3315889E-3
MEAN_MOTION_DOT = .10323E-3
MEAN_MOTION_DDOT = 0

CCSDS_OMM_VERS = 2.0
CREATION_DATE  = 
ORIGINATOR     = 

OBJECT_NAME    = KUIPER-00209
OBJECT_ID      = 2026-030N
CENTER_NAME    = EARTH
REF_FRAME      = TEME
TIME_SYSTEM    = UTC
MEAN_ELEMENT_THEORY = SGP/SGP4

EPOCH          = 2026-03-03T14:39:15.370848
MEAN_MOTION    = 15.31334966
ECCENTRICITY   = .00133766
INCLINATION    = 51.8812
RA_OF_ASC_NODE = 248.8193
ARG_OF_PERICENTER = 48.9025
MEAN_ANOMALY   = 311.3112

EPHEMERIS_TYPE = 0
CLASSIFICATION_TYPE = U
NORAD_CAT_ID   = 67776
ELEMENT_SET_NO = 999
REV_AT_EPOCH   = 415
BSTAR          = -.22701655E-3
MEAN_MOTION_DOT = -.7358E-4
MEAN_MOTION_DDOT = 0

